     2.100          NAVIGATION                              RINEX VERSION / TYPE
fic2rin                                 09/07/2012 00:13:53 PGM / RUN BY / DATE
                                                            END OF HEADER
13 12  9  6 15 59 44.0  .182958319783D-03 -.261479726760D-11  .000000000000D+00
     .200000000000D+02  .336250000000D+02  .403695386962D-08  .138162370697D+01
     .172853469849D-05  .483257672749D-02  .395439565182D-05  .515361958694D+04
     .403184000000D+06  .163912773132D-06 -.797245402117D+00 -.912696123123D-07
     .984463007476D+00  .314562500000D+03  .207767929961D+01 -.800783355841D-08
     .939324840936D-10  .100000000000D+01  .170400000000D+04  .000000000000D+00
     .240000000000D+01  .000000000000D+00 -.111758708954D-07  .200000000000D+02
     .396006000000D+06  .400000000000D+01
22 12  9  6 15 59 44.0  .147496815771D-03  .682121026330D-12  .000000000000D+00
     .150000000000D+02  .554375000000D+02  .507449708746D-08  .259731012156D+01
     .285729765892D-05  .631394051015D-02  .882707536221D-05  .515367663002D+04
     .403184000000D+06  .763684511185D-07 -.192975987390D+01 -.391155481339D-07
     .926541514950D+00  .189875000000D+03 -.200764364580D+01 -.817176895841D-08
    -.107147320259D-11  .100000000000D+01  .170400000000D+04  .000000000000D+00
     .240000000000D+01  .000000000000D+00 -.172294676304D-07  .150000000000D+02
     .396006000000D+06  .400000000000D+01
28 12  9  6 15 59 44.0  .182736199349D-03  .375166564481D-11  .000000000000D+00
     .800000000000D+01 -.303125000000D+02  .397016537332D-08  .254426485391D+01
    -.162608921528D-05  .180126342457D-01  .931322574615D-05  .515363525391D+04
     .403184000000D+06  .137835741043D-06  .125330843975D+01 -.175088644028D-06
     .980001715908D+00  .207062500000D+03 -.182150743972D+01 -.742959518675D-08
     .262153776900D-09  .100000000000D+01  .170400000000D+04  .000000000000D+00
     .240000000000D+01  .000000000000D+00 -.107102096081D-07  .800000000000D+01
     .396006000000D+06  .400000000000D+01
 1 12  9  6 16  0  0.0  .272601377219D-03  .147792889038D-11  .000000000000D+00
     .890000000000D+02 -.235937500000D+02  .457161899771D-08 -.444027632539D+00
    -.141188502312D-05  .113829260226D-02  .843964517117D-05  .515364039040D+04
     .403200000000D+06  .372529029846D-07 -.298885239786D+01  .353902578354D-07
     .960524674760D+00  .216000000000D+03  .373775447831D+00 -.797068915405D-08
    -.410731394325D-09  .100000000000D+01  .170400000000D+04  .000000000000D+00
     .240000000000D+01  .000000000000D+00  .838190317154D-08  .890000000000D+02
     .396006000000D+06  .400000000000D+01
 2 12  9  6 16  0  0.0  .402062200010D-03  .102318153949D-11  .000000000000D+00
     .410000000000D+02 -.220937500000D+02  .521307428833D-08  .490164704047D+00
    -.107102096081D-05  .114267496392D-01  .795908272266D-05  .515374924660D+04
     .403200000000D+06  .100582838058D-06 -.300477971656D+01  .223517417908D-06
     .939051765698D+00  .214843750000D+03 -.274295656903D+01 -.839927843509D-08
    -.417517391275D-09  .100000000000D+01  .170400000000D+04  .000000000000D+00
     .240000000000D+01  .000000000000D+00 -.172294676304D-07  .410000000000D+02
     .396006000000D+06  .400000000000D+01
 3 12  9  6 16  0  0.0  .980482436717D-04  .500222085975D-11  .000000000000D+00
     .930000000000D+02 -.218750000000D+01  .563809199202D-08  .661686921733D+00
     .819563865662D-07  .157989362488D-01  .651180744171D-05  .515373318672D+04
     .403200000000D+06 -.197440385818D-06  .211298339984D+01  .745058059692D-07
     .931929075044D+00  .242593750000D+03  .122947162185D+01 -.884501128737D-08
     .742888087128D-10  .100000000000D+01  .170400000000D+04  .000000000000D+00
     .240000000000D+01  .000000000000D+00 -.465661287308D-08  .930000000000D+02
     .396006000000D+06  .400000000000D+01
 5 12  9  6 16  0  0.0 -.349821988493D-03 -.306954461848D-11  .000000000000D+00
     .290000000000D+02  .719375000000D+02  .461340645261D-08  .264810070037D+01
     .366382300854D-05  .283806514926D-02  .967644155025D-05  .515374328613D+04
     .403200000000D+06 -.167638063431D-07 -.194110824585D+01 -.223517417908D-07
     .950146407675D+00  .188187500000D+03  .204970906227D+00 -.804069206996D-08
    -.628597612185D-10  .100000000000D+01  .170400000000D+04  .000000000000D+00
     .240000000000D+01  .000000000000D+00 -.102445483208D-07  .290000000000D+02
     .396006000000D+06  .400000000000D+01
 6 12  9  6 16  0  0.0 -.243275426328D-04 -.829913915368D-11  .000000000000D+00
     .700000000000D+02 -.615625000000D+01  .535879464388D-08  .253262691780D+01
    -.163912773132D-06  .733306549955D-02  .615604221821D-05  .515368410873D+04
     .403200000000D+06 -.111758708954D-07  .219043452249D+01  .240281224251D-06
     .938776406480D+00  .248218750000D+03 -.450699141703D+00 -.840535011657D-08
     .136077096729D-09  .100000000000D+01  .170400000000D+04  .000000000000D+00
     .240000000000D+01  .000000000000D+00 -.512227416039D-08  .700000000000D+02
     .396006000000D+06  .400000000000D+01
 7 12  9  6 16  0  0.0  .119057018310D-03  .420641299570D-11  .000000000000D+00
     .900000000000D+02 -.520937500000D+02  .418588864478D-08 -.864029275773D+00
    -.274740159512D-05  .593146355823D-02  .616163015366D-05  .515372344017D+04
     .403200000000D+06  .670552253723D-07  .171796470938D+00 -.279396772385D-07
     .976145554552D+00  .264843750000D+03 -.298982566117D+01 -.801569102856D-08
    -.475019786481D-10  .100000000000D+01  .170400000000D+04  .000000000000D+00
     .240000000000D+01  .000000000000D+00 -.107102096081D-07  .900000000000D+02
     .396006000000D+06  .400000000000D+01
 8 12  9  6 16  0  0.0  .210991129279D-05  .000000000000D+00  .000000000000D+00
     .164000000000D+03 -.617812500000D+02  .362372237115D-08 -.153869180542D+01
    -.351667404175D-05  .126783521846D-01  .700727105141D-05  .515365687370D+04
     .403200000000D+06  .614672899246D-07  .257271646591D+00 -.111758708954D-06
     .998479210964D+00  .260531250000D+03 -.293730777109D+01 -.769210612138D-08
     .814319633967D-10  .100000000000D+01  .170400000000D+04  .000000000000D+00
     .240000000000D+01  .000000000000D+00 -.419095158577D-08  .164000000000D+03
     .396006000000D+06  .400000000000D+01
 9 12  9  6 16  0  0.0  .183764845133D-03  .250111042988D-11  .000000000000D+00
     .620000000000D+02 -.461250000000D+02  .403123934587D-08 -.150933081721D+01
    -.196322798729D-05  .173261320451D-01  .615790486336D-05  .515361093140D+04
     .403200000000D+06 -.484287738800D-07  .146810140283D+00  .452622771263D-06
     .984849454841D+00  .276500000000D+03  .164496277265D+01 -.796854620765D-08
    -.108218793461D-09  .100000000000D+01  .170400000000D+04  .000000000000D+00
     .240000000000D+01  .000000000000D+00 -.558793544769D-08  .620000000000D+02
     .396006000000D+06  .400000000000D+01
10 12  9  6 16  0  0.0 -.508087687194D-04 -.136424205266D-11  .000000000000D+00
     .560000000000D+02  .775625000000D+02  .454376069444D-08  .288721932859D+01
     .387988984585D-05  .115562477149D-01  .932626426220D-05  .515372579002D+04
     .403200000000D+06  .260770320892D-07 -.192013168003D+01 -.134110450745D-06
     .945002199615D+00  .190281250000D+03  .758011939040D+00 -.789032866386D-08
     .214294640518D-11  .100000000000D+01  .170400000000D+04  .000000000000D+00
     .240000000000D+01  .000000000000D+00 -.232830643654D-08  .560000000000D+02
     .396006000000D+06  .400000000000D+01
11 12  9  6 16  0  0.0 -.299934763461D-03 -.386535248253D-11  .000000000000D+00
     .280000000000D+02 -.287812500000D+02  .653170064298D-08 -.738633976944D+00
    -.141188502312D-05  .134194553830D-01  .650621950626D-05  .515367410278D+04
     .403200000000D+06 -.102445483208D-06  .301699007496D+01  .253319740295D-06
     .888661609512D+00  .213437500000D+03  .108531538905D+01 -.916966766775D-08
    -.339657005220D-09  .100000000000D+01  .170400000000D+04  .000000000000D+00
     .240000000000D+01  .000000000000D+00 -.121071934700D-07  .280000000000D+02
     .396006000000D+06  .400000000000D+01
12 12  9  6 16  0  0.0  .894726254046D-04  .204636307899D-11  .000000000000D+00
     .790000000000D+02 -.282812500000D+02  .413017203824D-08 -.124162301879D+01
    -.144913792610D-05  .400301988702D-02  .872649252415D-05  .515372657013D+04
     .403200000000D+06  .558793544769D-07  .122848943474D+01 -.242143869400D-07
     .980835674303D+00  .223156250000D+03  .145958016834D+00 -.781068248913D-08
     .358943522867D-09  .100000000000D+01  .170400000000D+04  .000000000000D+00
     .240000000000D+01  .000000000000D+00 -.121071934700D-07  .790000000000D+02
     .396006000000D+06  .400000000000D+01
14 12  9  6 16  0  0.0  .211992766708D-03  .909494701773D-12  .000000000000D+00
     .270000000000D+02  .372812500000D+02  .418910306439D-08  .164728381068D+01
     .195577740669D-05  .678660417907D-02  .455603003502D-05  .515363655090D+04
     .403200000000D+06 -.171363353729D-06 -.824655018534D+00 -.782310962677D-07
     .977234221614D+00  .297250000000D+03 -.205509468399D+01 -.810033741157D-08
     .607168148133D-10  .100000000000D+01  .170400000000D+04  .000000000000D+00
     .240000000000D+01  .000000000000D+00 -.931322574615D-08  .270000000000D+02
     .396006000000D+06  .400000000000D+01
15 12  9  6 16  0  0.0 -.948975794017D-04 -.682121026330D-12  .000000000000D+00
     .430000000000D+02  .538437500000D+02  .493663420206D-08  .121904618297D+01
     .281445682049D-05  .458314071875D-02  .424869358540D-05  .515362618256D+04
     .403200000000D+06 -.931322574615D-08 -.915839498243D+00  .465661287308D-07
     .943943310251D+00  .286968750000D+03  .345244014628D-01 -.847499587474D-08
     .360729311538D-10  .100000000000D+01  .170400000000D+04  .000000000000D+00
     .240000000000D+01  .000000000000D+00 -.102445483208D-07  .430000000000D+02
     .396006000000D+06  .400000000000D+01
